NORAD_CAT_ID,OBJECT_NAME,OBJECT_TYPE,EPOCH,MEAN_MOTION,ECCENTRICITY,INCLINATION,RA_OF_ASC_NODE,ARG_OF_PERICENTER,MEAN_ANOMALY,BSTAR,MEAN_MOTION_DOT,MEAN_MOTION_DDOT,TLE_LINE0,TLE_LINE1,TLE_LINE2,SEMIMAJOR_AXIS,PERIOD,APOGEE,PERIGEE,DECAYED
52372.0,STARLINK-3796,PAYLOAD,2023-02-08 17:43:16,15.08840253,9.89e-05,53.2155,199.2249,95.4971,264.6134,5.0896e-05,5.22e-06,0.0,0 STARLINK-3796,1 52372U 22045AT  23039.73838666  .00000522  00000-0  50896-4 0  9997,2 52372  53.2155 199.2249 0000989  95.4971 264.6134 15.08840253 46089,6917.88,95.438,540.429,539.06,0.0
52372.0,STARLINK-3796,PAYLOAD,2023-02-09 03:15:35,15.08840624,8.94e-05,53.2157,197.441,87.7049,272.4046,5.2197e-05,5.43e-06,0.0,0 STARLINK-3796,1 52372U 22045AT  23040.13582679  .00000543  00000-0  52197-4 0  9992,2 52372  53.2157 197.4410 0000894  87.7049 272.4046 15.08840624 46144,6917.878,95.438,540.362,539.125,0.0
52372.0,STARLINK-3796,PAYLOAD,2023-02-09 17:34:03,15.08840567,9.29e-05,53.216,194.764,76.2374,283.8721,5.7064e-06,-1.97e-06,0.0,0 STARLINK-3796,1 52372U 22045AT  23040.73199040 -.00000197  00000-0  57064-5 0  9999,2 52372  53.2160 194.7640 0000929  76.2374 283.8721 15.08840567 46238,6917.879,95.438,540.386,539.101,0.0
52372.0,STARLINK-3796,PAYLOAD,2023-02-10 03:06:22,15.08841625,0.0001003,53.2161,192.981,84.9628,275.1479,0.00011018,1.466e-05,0.0,0 STARLINK-3796,1 52372U 22045AT  23041.12942818  .00001466  00000-0  11018-3 0  9998,2 52372  53.2161 192.9810 0001003  84.9628 275.1479 15.08841625 46296,6917.875,95.437,540.434,539.047,0.0
52372.0,STARLINK-3796,PAYLOAD,2023-02-10 12:38:42,15.0883341,0.0001029,53.2155,191.1964,77.1962,282.9145,0.000115,1.543e-05,0.0,0 STARLINK-3796,1 52372U 22045AT  23041.52687577  .00001543  00000-0  11500-3 0  9992,2 52372  53.2155 191.1964 0001029  77.1962 282.9145 15.08833410 46359,6917.901,95.438,540.477,539.054,0.0
52372.0,STARLINK-3796,PAYLOAD,2023-02-10 15:49:27,15.08860666,8.71e-05,53.2154,190.6011,84.7264,275.3828,-0.00022534,-3.874e-05,0.0,0 STARLINK-3796,1 52372U 22045AT  23041.65934588 -.00003874  00000-0 -22534-3 0  9993,2 52372  53.2154 190.6011 0000871  84.7264 275.3828 15.08860666 46377,6917.817,95.436,540.285,539.08,0.0
52372.0,STARLINK-3796,PAYLOAD,2023-02-11 12:29:29,15.08832159,0.0001015,53.2161,186.7356,74.8661,285.2443,9.5456e-05,1.231e-05,0.0,0 STARLINK-3796,1 52372U 22045AT  23042.52047813  .00001231  00000-0  95456-4 0  9993,2 52372  53.2161 186.7356 0001015  74.8661 285.2443 15.08832159 46509,6917.904,95.438,540.472,539.067,0.0
52372.0,STARLINK-3796,PAYLOAD,2023-02-11 18:51:01,15.08843993,0.0001254,53.2158,185.5475,67.4153,292.6972,8.7503e-05,1.105e-05,0.0,0 STARLINK-3796,1 52372U 22045AT  23042.78543140  .00001105  00000-0  87503-4 0  9999,2 52372  53.2158 185.5475 0001254  67.4153 292.6972 15.08843993 46544,6917.868,95.437,540.601,538.866,0.0
52372.0,STARLINK-3796,PAYLOAD,2023-02-12 07:34:07,15.08831252,0.0001051,53.2162,183.1674,77.7638,282.3472,3.226e-05,2.26e-06,0.0,0 STARLINK-3796,1 52372U 22045AT  23043.31536123  .00000226  00000-0  32260-4 0  9995,2 52372  53.2162 183.1674 0001051  77.7638 282.3472 15.08831252 46626,6917.907,95.438,540.499,539.045,0.0
52372.0,STARLINK-3796,PAYLOAD,2023-02-12 12:20:16,15.08835565,0.0001055,53.2161,182.2751,82.5923,277.5189,5.8174e-05,6.38e-06,0.0,0 STARLINK-3796,1 52372U 22045AT  23043.51407833  .00000638  00000-0  58174-4 0  9991,2 52372  53.2161 182.2751 0001055  82.5923 277.5189 15.08835565 46651,6917.894,95.438,540.489,539.029,0.0
52372.0,STARLINK-3796,PAYLOAD,2023-02-13 02:38:43,15.0885139,8.77e-05,53.2165,179.5974,95.5831,264.5261,4.6238e-05,4.48e-06,0.0,0 STARLINK-3796,1 52372U 22045AT  23044.11022625  .00000448  00000-0  46238-4 0  9997,2 52372  53.2165 179.5974 0000877  95.5831 264.5261 15.08851390 46745,6917.846,95.437,540.317,539.104,0.0
52372.0,STARLINK-3796,PAYLOAD,2023-02-13 12:11:03,15.08832222,0.0001081,53.2162,177.8148,85.7927,274.3188,9.2676e-05,1.187e-05,0.0,0 STARLINK-3796,1 52372U 22045AT  23044.50768045  .00001187  00000-0  92676-4 0  9991,2 52372  53.2162 177.8148 0001081  85.7927 274.3188 15.08832222 46808,6917.904,95.438,540.517,539.021,0.0
52372.0,STARLINK-3796,PAYLOAD,2023-02-14 15:12:36,15.08839585,0.0001068,53.2166,172.7589,85.9962,274.1152,0.00014351,1.997e-05,0.0,0 STARLINK-3796,1 52372U 22045AT  23045.63375372  .00001997  00000-0  14351-3 0  9995,2 52372  53.2166 172.7589 0001068  85.9962 274.1152 15.08839585 46977,6917.882,95.438,540.485,539.008,0.0
52372.0,STARLINK-3796,PAYLOAD,2023-02-15 13:27:59,15.08853764,0.0001164,53.2164,168.5946,91.7422,268.3704,0.00020802,3.026e-05,0.0,0 STARLINK-3796,1 52372U 22045AT  23046.56110224  .00003026  00000-0  20802-3 0  9994,2 52372  53.2164 168.5946 0001164  91.7422 268.3704 15.08853764 47118,6917.838,95.437,540.509,538.898,0.0
52372.0,STARLINK-3796,PAYLOAD,2023-02-15 15:03:22,15.08856708,0.0001178,53.2163,168.2971,97.5603,262.5522,0.00022721,3.332e-05,0.0,0 STARLINK-3796,1 52372U 22045AT  23046.62733937  .00003332  00000-0  22721-3 0  9995,2 52372  53.2163 168.2971 0001178  97.5603 262.5522 15.08856708 47128,6917.829,95.436,540.509,538.879,0.0
52372.0,STARLINK-3796,PAYLOAD,2023-02-16 08:32:36,15.08847893,0.000145,53.2158,165.026,81.594,278.5216,0.00015431,2.169e-05,0.0,0 STARLINK-3796,1 52372U 22045AT  23047.35598279  .00002169  00000-0  15431-3 0  9991,2 52372  53.2158 165.0260 0001450  81.5940 278.5216 15.08847893 47232,6917.856,95.437,540.724,538.718,0.0
52372.0,STARLINK-3796,PAYLOAD,2023-02-16 14:54:08,15.08860331,0.0001443,53.2155,163.839,80.64,279.4755,0.0002667,3.961e-05,0.0,0 STARLINK-3796,1 52372U 22045AT  23047.62093130  .00003961  00000-0  26670-3 0  9995,2 52372  53.2155 163.8390 0001443  80.6400 279.4755 15.08860331 47276,6917.818,95.436,540.681,538.685,0.0
52372.0,STARLINK-3796,PAYLOAD,2023-02-16 16:29:31,15.08866269,0.0001538,53.2164,163.5409,80.3024,279.8142,0.00031291,4.699e-05,0.0,0 STARLINK-3796,1 52372U 22045AT  23047.68716536  .00004699  00000-0  31291-3 0  9997,2 52372  53.2164 163.5409 0001538  80.3024 279.8142 15.08866269 47289,6917.8,95.436,540.729,538.601,0.0
52372.0,STARLINK-3796,PAYLOAD,2023-02-17 06:48:02,15.08821821,0.0001973,53.2163,160.8631,76.4205,283.7007,-1.938e-05,-5.96e-06,0.0,0 STARLINK-3796,1 52372U 22045AT  23048.28336491 -.00000596  00000-0 -19380-4 0  9992,2 52372  53.2163 160.8631 0001973  76.4205 283.7007 15.08821821 47374,6917.936,95.439,541.166,538.436,0.0
52372.0,STARLINK-3796,PAYLOAD,2023-02-17 09:58:49,15.08818802,0.0001229,53.2161,160.2692,91.0659,269.0474,-6.1182e-05,-1.261e-05,0.0,0 STARLINK-3796,1 52372U 22045AT  23048.41584795 -.00001261  00000-0 -61182-4 0  9996,2 52372  53.2161 160.2692 0001229  91.0659 269.0474 15.08818802 47395,6917.945,95.439,540.66,538.96,0.0
52372.0,STARLINK-3796,PAYLOAD,2023-02-18 09:49:36,15.08834863,0.0001268,53.215,155.8102,92.136,267.9777,-0.00014334,-2.568e-05,0.0,0 STARLINK-3796,1 52372U 22045AT  23049.40944543 -.00002568  00000-0 -14334-3 0  9994,2 52372  53.2150 155.8102 0001268  92.1360 267.9777 15.08834863 47548,6917.896,95.438,540.638,538.884,0.0
52372.0,STARLINK-3796,PAYLOAD,2023-02-18 14:35:44,15.08843428,0.0001095,53.216,154.9178,99.3075,260.8041,-5.0549e-05,-1.092e-05,0.0,0 STARLINK-3796,1 52372U 22045AT  23049.60815761 -.00001092  00000-0 -50549-4 0  9995,2 52372  53.2160 154.9178 0001095  99.3075 260.8041 15.08843428 47578,6917.87,95.437,540.492,538.977,0.0
52372.0,STARLINK-3796,PAYLOAD,2023-02-19 12:51:09,15.08835172,8.6e-05,53.2162,150.7546,96.0793,264.0297,0.00026447,3.923e-05,0.0,0 STARLINK-3796,1 52372U 22045AT  23050.53552333  .00003923  00000-0  26447-3 0  9994,2 52372  53.2162 150.7546 0000860  96.0793 264.0297 15.08835172 47715,6917.895,95.438,540.355,539.165,0.0
52372.0,STARLINK-3796,PAYLOAD,2023-02-20 12:41:56,15.08843067,0.0001101,53.2154,146.2938,101.6802,258.4314,0.00013448,1.853e-05,0.0,0 STARLINK-3796,1 52372U 22045AT  23051.52912422  .00001853  00000-0  13448-3 0  9990,2 52372  53.2154 146.2938 0001101 101.6802 258.4314 15.08843067 47869,6917.871,95.437,540.498,538.974,0.0
52372.0,STARLINK-3796,PAYLOAD,2023-02-21 06:11:10,15.08845791,8.52e-05,53.2157,143.0249,77.5281,282.5807,0.00012171,1.65e-05,0.0,0 STARLINK-3796,1 52372U 22045AT  23052.25776123  .00001650  00000-0  12171-3 0  9994,2 52372  53.2157 143.0249 0000852  77.5281 282.5807 15.08845791 47979,6917.863,95.437,540.317,539.138,0.0
52372.0,STARLINK-3796,PAYLOAD,2023-02-21 12:32:42,15.08855218,9.93e-05,53.216,141.8339,93.8378,266.2728,0.00015153,2.126e-05,0.0,0 STARLINK-3796,1 52372U 22045AT  23052.52271308  .00002126  00000-0  15153-3 0  9991,2 52372  53.2160 141.8339 0000993  93.8378 266.2728 15.08855218 48015,6917.834,95.437,540.386,539.012,0.0
52372.0,STARLINK-3796,PAYLOAD,2023-02-22 10:48:06,15.08844059,0.0001032,53.2159,137.6698,98.1279,261.983,7.7136e-05,9.4e-06,0.0,0 STARLINK-3796,1 52372U 22045AT  23053.45007730  .00000940  00000-0  77136-4 0  9992,2 52372  53.2159 137.6698 0001032  98.1279 261.9830 15.08844059 48159,6917.868,95.437,540.447,539.019,0.0
52372.0,STARLINK-3796,PAYLOAD,2023-02-22 12:23:29,15.08846479,9.72e-05,53.2155,137.3741,83.9136,276.1966,5.6157e-05,6.06e-06,0.0,0 STARLINK-3796,1 52372U 22045AT  23053.51631592  .00000606  00000-0  56157-4 0  9997,2 52372  53.2155 137.3741 0000972  83.9136 276.1966 15.08846479 48164,6917.861,95.437,540.398,539.053,0.0
52372.0,STARLINK-3796,PAYLOAD,2023-02-22 21:55:48,15.08847414,0.0001019,53.2157,135.5888,90.4276,269.6833,5.7722e-05,6.31e-06,0.0,0 STARLINK-3796,1 52372U 22045AT  23053.91375299  .00000631  00000-0  57722-4 0  9997,2 52372  53.2157 135.5888 0001019  90.4276 269.6833 15.08847414 48226,6917.858,95.437,540.428,539.018,0.0
52372.0,STARLINK-3796,PAYLOAD,2023-02-23 05:52:45,15.08836334,9.99e-05,53.2156,134.1022,96.6199,263.4907,-8.1703e-05,-1.588e-05,0.0,0 STARLINK-3796,1 52372U 22045AT  23054.24496649 -.00001588  00000-0 -81703-4 0  9997,2 52372  53.2156 134.1022 0000999  96.6199 263.4907 15.08836334 48276,6917.892,95.438,540.448,539.065,0.0
